CCSDS_OMM_VERS = 2.0
CREATION_DATE  = 
ORIGINATOR     = 

OBJECT_NAME    = STARLINK-36754
OBJECT_ID      = 2026-026E
CENTER_NAME    = EARTH
REF_FRAME      = TEME
TIME_SYSTEM    = UTC
MEAN_ELEMENT_THEORY = SGP/SGP4

EPOCH          = 2026-02-27T06:00:02.000160
MEAN_MOTION    = 15.80804617
ECCENTRICITY   = .00014119
INCLINATION    = 97.2852
RA_OF_ASC_NODE = 112.3805
ARG_OF_PERICENTER = 96.0775
MEAN_ANOMALY   = 333.4814

EPHEMERIS_TYPE = 0
CLASSIFICATION_TYPE = U
NORAD_CAT_ID   = 67725
ELEMENT_SET_NO = 999
REV_AT_EPOCH   = 363
BSTAR          = -.1695096E-3
MEAN_MOTION_DOT = -.32474E-3
MEAN_MOTION_DDOT = 0

CCSDS_OMM_VERS = 2.0
CREATION_DATE  = 
ORIGINATOR     = 

OBJECT_NAME    = STARLINK-36755
OBJECT_ID      = 2026-026F
CENTER_NAME    = EARTH
REF_FRAME      = TEME
TIME_SYSTEM    = UTC
MEAN_ELEMENT_THEORY = SGP/SGP4

EPOCH          = 2026-02-27T06:00:02.000160
MEAN_MOTION    = 15.80779552
ECCENTRICITY   = .00011951
INCLINATION    = 97.2854
RA_OF_ASC_NODE = 112.3832
ARG_OF_PERICENTER = 91.0194
MEAN_ANOMALY   = 346.2117

EPHEMERIS_TYPE = 0
CLASSIFICATION_TYPE = U
NORAD_CAT_ID   = 67726
ELEMENT_SET_NO = 999
REV_AT_EPOCH   = 363
BSTAR          = .16588352E-3
MEAN_MOTION_DOT = .31695E-3
MEAN_MOTION_DDOT = 0

CCSDS_OMM_VERS = 2.0
CREATION_DATE  = 
ORIGINATOR     = 

OBJECT_NAME    = STARLINK-36741
OBJECT_ID      = 2026-026G
CENTER_NAME    = EARTH
REF_FRAME      = TEME
TIME_SYSTEM    = UTC
MEAN_ELEMENT_THEORY = SGP/SGP4

EPOCH          = 2026-02-27T06:00:02.000160
MEAN_MOTION    = 15.80831347
ECCENTRICITY   = .00015977
INCLINATION    = 97.2853
RA_OF_ASC_NODE = 112.3843
ARG_OF_PERICENTER = 65.9302
MEAN_ANOMALY   = 16.2223

EPHEMERIS_TYPE = 0
CLASSIFICATION_TYPE = U
NORAD_CAT_ID   = 67727
ELEMENT_SET_NO = 999
REV_AT_EPOCH   = 363
BSTAR          = -.48189292E-3
MEAN_MOTION_DOT = -.91554E-3
MEAN_MOTION_DDOT = 0

CCSDS_OMM_VERS = 2.0
CREATION_DATE  = 
ORIGINATOR     = 

OBJECT_NAME    = STARLINK-36757
OBJECT_ID      = 2026-026H
CENTER_NAME    = EARTH
REF_FRAME      = TEME
TIME_SYSTEM    = UTC
MEAN_ELEMENT_THEORY = SGP/SGP4

EPOCH          = 2026-02-27T06:00:02.000160
MEAN_MOTION    = 15.80826053
ECCENTRICITY   = .00016939
INCLINATION    = 97.2854
RA_OF_ASC_NODE = 112.3868
ARG_OF_PERICENTER = 69.0242
MEAN_ANOMALY   = 20.0305

EPHEMERIS_TYPE = 0
CLASSIFICATION_TYPE = U
NORAD_CAT_ID   = 67728
ELEMENT_SET_NO = 999
REV_AT_EPOCH   = 363
BSTAR          = -.31021912E-3
MEAN_MOTION_DOT = -.59193E-3
MEAN_MOTION_DDOT = 0

CCSDS_OMM_VERS = 2.0
CREATION_DATE  = 
ORIGINATOR     = 

OBJECT_NAME    = STARLINK-36751
OBJECT_ID      = 2026-026J
CENTER_NAME    = EARTH
REF_FRAME      = TEME
TIME_SYSTEM    = UTC
MEAN_ELEMENT_THEORY = SGP/SGP4

EPOCH          = 2026-02-27T06:00:02.000160
MEAN_MOTION    = 15.80792132
ECCENTRICITY   = .0001888
INCLINATION    = 97.2859
RA_OF_ASC_NODE = 112.3924
ARG_OF_PERICENTER = 112.0829
MEAN_ANOMALY   = 351.0739

EPHEMERIS_TYPE = 0
CLASSIFICATION_TYPE = U
NORAD_CAT_ID   = 67729
ELEMENT_SET_NO = 999
REV_AT_EPOCH   = 363
BSTAR          = .57786175E-4
MEAN_MOTION_DOT = .10929E-3
MEAN_MOTION_DDOT = 0

CCSDS_OMM_VERS = 2.0
CREATION_DATE  = 
ORIGINATOR     = 

OBJECT_NAME    = STARLINK-36747
OBJECT_ID      = 2026-026K
CENTER_NAME    = EARTH
REF_FRAME      = TEME
TIME_SYSTEM    = UTC
MEAN_ELEMENT_THEORY = SGP/SGP4

EPOCH          = 2026-02-27T06:00:02.000160
MEAN_MOTION    = 15.80795067
ECCENTRICITY   = .00013426
INCLINATION    = 97.2853
RA_OF_ASC_NODE = 112.3898
ARG_OF_PERICENTER = 100.2891
MEAN_ANOMALY   = 354.3174

EPHEMERIS_TYPE = 0
CLASSIFICATION_TYPE = U
NORAD_CAT_ID   = 67730
ELEMENT_SET_NO = 999
REV_AT_EPOCH   = 363
BSTAR          = -.11506562E-3
MEAN_MOTION_DOT = -.22106E-3
MEAN_MOTION_DDOT = 0

CCSDS_OMM_VERS = 2.0
CREATION_DATE  = 
ORIGINATOR     = 

OBJECT_NAME    = STARLINK-36315
OBJECT_ID      = 2026-026L
CENTER_NAME    = EARTH
REF_FRAME      = TEME
TIME_SYSTEM    = UTC
MEAN_ELEMENT_THEORY = SGP/SGP4

EPOCH          = 2026-02-27T06:00:02.000160
MEAN_MOTION    = 15.80828556
ECCENTRICITY   = .00014398
INCLINATION    = 97.2853
RA_OF_ASC_NODE = 112.3956
ARG_OF_PERICENTER = 82.3752
MEAN_ANOMALY   = 26.2435

EPHEMERIS_TYPE = 0
CLASSIFICATION_TYPE = U
NORAD_CAT_ID   = 67731
ELEMENT_SET_NO = 999
REV_AT_EPOCH   = 363
BSTAR          = -.38115862E-3
MEAN_MOTION_DOT = -.72591E-3
MEAN_MOTION_DDOT = 0

CCSDS_OMM_VERS = 2.0
CREATION_DATE  = 
ORIGINATOR     = 

OBJECT_NAME    = STARLINK-36260
OBJECT_ID      = 2026-026M
CENTER_NAME    = EARTH
REF_FRAME      = TEME
TIME_SYSTEM    = UTC
MEAN_ELEMENT_THEORY = SGP/SGP4

EPOCH          = 2026-02-27T06:00:02.000160
MEAN_MOTION    = 15.80799164
ECCENTRICITY   = .00016793
INCLINATION    = 97.2854
RA_OF_ASC_NODE = 112.3986
ARG_OF_PERICENTER = 122.1980
MEAN_ANOMALY   = 353.1675

EPHEMERIS_TYPE = 0
CLASSIFICATION_TYPE = U
NORAD_CAT_ID   = 67732
ELEMENT_SET_NO = 999
REV_AT_EPOCH   = 363
BSTAR          = .11489154E-3
MEAN_MOTION_DOT = .21904E-3
MEAN_MOTION_DDOT = 0

CCSDS_OMM_VERS = 2.0
CREATION_DATE  = 
ORIGINATOR     = 

OBJECT_NAME    = STARLINK-36746
OBJECT_ID      = 2026-026N
CENTER_NAME    = EARTH
REF_FRAME      = TEME
TIME_SYSTEM    = UTC
MEAN_ELEMENT_THEORY = SGP/SGP4

EPOCH          = 2026-02-27T06:00:02.000160
MEAN_MOTION    = 15.72634593
ECCENTRICITY   = .00016688
INCLINATION    = 97.2787
RA_OF_ASC_NODE = 112.3872
ARG_OF_PERICENTER = 62.1070
MEAN_ANOMALY   = 28.8971

EPHEMERIS_TYPE = 0
CLASSIFICATION_TYPE = U
NORAD_CAT_ID   = 67733
ELEMENT_SET_NO = 999
REV_AT_EPOCH   = 363
BSTAR          = -.17076793E-1
MEAN_MOTION_DOT = -.2016324E-1
MEAN_MOTION_DDOT = 0

CCSDS_OMM_VERS = 2.0
CREATION_DATE  = 
ORIGINATOR     = 

OBJECT_NAME    = STARLINK-36749
OBJECT_ID      = 2026-026P
CENTER_NAME    = EARTH
REF_FRAME      = TEME
TIME_SYSTEM    = UTC
MEAN_ELEMENT_THEORY = SGP/SGP4

EPOCH          = 2026-02-27T06:00:02.000160
MEAN_MOTION    = 15.80810059
ECCENTRICITY   = .00018181
INCLINATION    = 97.2851
RA_OF_ASC_NODE = 112.4014
ARG_OF_PERICENTER = 98.9548
MEAN_ANOMALY   = 28.1283

EPHEMERIS_TYPE = 0
CLASSIFICATION_TYPE = U
NORAD_CAT_ID   = 67734
ELEMENT_SET_NO = 999
REV_AT_EPOCH   = 363
BSTAR          = -.24901117E-3
MEAN_MOTION_DOT = -.47571E-3
MEAN_MOTION_DDOT = 0

CCSDS_OMM_VERS = 2.0
CREATION_DATE  = 
ORIGINATOR     = 

OBJECT_NAME    = STARLINK-36691
OBJECT_ID      = 2026-026Q
CENTER_NAME    = EARTH
REF_FRAME      = TEME
TIME_SYSTEM    = UTC
MEAN_ELEMENT_THEORY = SGP/SGP4

EPOCH          = 2026-02-27T06:00:02.000160
MEAN_MOTION    = 15.80782704
ECCENTRICITY   = .00014422
INCLINATION    = 97.2828
RA_OF_ASC_NODE = 112.4092
ARG_OF_PERICENTER = 77.1508
MEAN_ANOMALY   = 69.3742

EPHEMERIS_TYPE = 0
CLASSIFICATION_TYPE = U
NORAD_CAT_ID   = 67735
ELEMENT_SET_NO = 999
REV_AT_EPOCH   = 377
BSTAR          = .37976316E-3
MEAN_MOTION_DOT = .73102E-3
MEAN_MOTION_DDOT = 0

CCSDS_OMM_VERS = 2.0
CREATION_DATE  = 
ORIGINATOR     = 

OBJECT_NAME    = STARLINK-36317
OBJECT_ID      = 2026-026R
CENTER_NAME    = EARTH
REF_FRAME      = TEME
TIME_SYSTEM    = UTC
MEAN_ELEMENT_THEORY = SGP/SGP4

EPOCH          = 2026-02-27T06:00:02.000160
MEAN_MOTION    = 15.80794211
ECCENTRICITY   = .00012235
INCLINATION    = 97.2832
RA_OF_ASC_NODE = 112.4049
ARG_OF_PERICENTER = 81.1945
MEAN_ANOMALY   = 55.8496

EPHEMERIS_TYPE = 0
CLASSIFICATION_TYPE = U
NORAD_CAT_ID   = 67736
ELEMENT_SET_NO = 999
REV_AT_EPOCH   = 363
BSTAR          = .29249888E-3
MEAN_MOTION_DOT = .56191E-3
MEAN_MOTION_DDOT = 0

CCSDS_OMM_VERS = 2.0
CREATION_DATE  = 
ORIGINATOR     = 

OBJECT_NAME    = STARLINK-36330
OBJECT_ID      = 2026-026S
CENTER_NAME    = EARTH
REF_FRAME      = TEME
TIME_SYSTEM    = UTC
MEAN_ELEMENT_THEORY = SGP/SGP4

EPOCH          = 2026-02-27T06:00:02.000160
MEAN_MOTION    = 15.80753627
ECCENTRICITY   = .0001387
INCLINATION    = 97.2834
RA_OF_ASC_NODE = 112.4120
ARG_OF_PERICENTER = 53.5826
MEAN_ANOMALY   = 99.1884

EPHEMERIS_TYPE = 0
CLASSIFICATION_TYPE = U
NORAD_CAT_ID   = 67737
ELEMENT_SET_NO = 999
REV_AT_EPOCH   = 363
BSTAR          = .58902698E-3
MEAN_MOTION_DOT = .113843E-2
MEAN_MOTION_DDOT = 0

CCSDS_OMM_VERS = 2.0
CREATION_DATE  = 
ORIGINATOR     = 

OBJECT_NAME    = STARLINK-36327
OBJECT_ID      = 2026-026T
CENTER_NAME    = EARTH
REF_FRAME      = TEME
TIME_SYSTEM    = UTC
MEAN_ELEMENT_THEORY = SGP/SGP4

EPOCH          = 2026-02-27T06:00:02.000160
MEAN_MOTION    = 15.80723371
ECCENTRICITY   = .00014983
INCLINATION    = 97.2836
RA_OF_ASC_NODE = 112.4160
ARG_OF_PERICENTER = 76.5965
MEAN_ANOMALY   = 84.1752

EPHEMERIS_TYPE = 0
CLASSIFICATION_TYPE = U
NORAD_CAT_ID   = 67738
ELEMENT_SET_NO = 999
REV_AT_EPOCH   = 363
BSTAR          = .82362137E-3
MEAN_MOTION_DOT = .159868E-2
MEAN_MOTION_DDOT = 0

CCSDS_OMM_VERS = 2.0
CREATION_DATE  = 
ORIGINATOR     = 

OBJECT_NAME    = STARLINK-36329
OBJECT_ID      = 2026-026U
CENTER_NAME    = EARTH
REF_FRAME      = TEME
TIME_SYSTEM    = UTC
MEAN_ELEMENT_THEORY = SGP/SGP4

EPOCH          = 2026-02-27T06:00:02.000160
MEAN_MOTION    = 15.80765202
ECCENTRICITY   = .00013521
INCLINATION    = 97.2789
RA_OF_ASC_NODE = 112.4327
ARG_OF_PERICENTER = 81.4628
MEAN_ANOMALY   = 127.4128

EPHEMERIS_TYPE = 0
CLASSIFICATION_TYPE = U
NORAD_CAT_ID   = 67739
ELEMENT_SET_NO = 999
REV_AT_EPOCH   = 363
BSTAR          = .49551839E-3
MEAN_MOTION_DOT = .95597E-3
MEAN_MOTION_DDOT = 0

